WESTAR 1                
1 07250U 74022A   26062.96839000 -.00000372  00000+0  00000+0 0  9991
2 07250   7.3463 298.7765 0006701  32.1623 307.2291  0.99902455121274
TITAN 3C TRANSTAGE R/B  
1 07324U 74039C   26063.07584064 -.00000269  00000+0  00000+0 0  9996
2 07324   3.0130 262.3524 0033821  80.3973 156.4868  1.00718867118563
SL-6 R/B(2)             
1 07373U 74026E   26060.97005948  .00000843  00000+0  00000+0 0  9998
2 07373  64.1539 308.5298 7120263 269.4646  16.2289  2.06577970384728
MOLNIYA 2-10            
1 07376U 74056A   26057.81717685  .00000882  00000+0  00000+0 0  9994
2 07376  65.3416 311.4743 6751995 270.7875  18.7952  2.01178367377511
MOLNIYA 1-S             
1 07392U 74060A   26063.80236990 -.00000273  00000+0  00000+0 0  9993
2 07392   1.6398 254.7491 0007624 282.5638   6.7175  1.00332500133125
WESTAR 2                
1 07466U 74075A   26062.94160985 -.00000153  00000+0  00000+0 0  9992
2 07466   7.4946 300.4751 0001697 252.0149 300.8601  0.99861893136608
INTELSAT 4-F8           
1 07544U 74093A   26063.65115352  .00000089  00000+0  00000+0 0  9993
2 07544   8.1905 305.2669 0001373 232.3698 277.9698  0.99780128124169
ATLAS CENTAUR R/B       
1 07545U 74093B   26062.09078340 -.00000075  00000+0  17915-2 0  9998
2 07545  25.9376  88.9998 7192009 260.6294  18.9123  2.21273689284551
SKYNET 2B               
1 07547U 74094A   26063.19072456  .00000056  00000+0  00000+0 0  9997
2 07547   3.8362 281.6244 0000261 189.9377 173.2953  1.00383036123715
SYMPHONIE 1             
1 07578U 74101A   26063.16536773  .00000130  00000+0  00000+0 0  9997
2 07578   4.8449 278.3314 0004546  27.2609 318.1217  0.99947866116145
COSMOS 706              
1 07625U 75007A   26040.22199341 -.00000726  00000+0  00000+0 0  9996
2 07625  63.9823 167.2451 6865829   3.1692 359.4012  2.00695604233873
SMS 2                   
1 07648U 75011A   26062.90356302 -.00000257  00000+0  00000+0 0  9996
2 07648   5.7359 284.4120 0012289 284.4330  78.6338  0.99516308134636
MOLNIYA 1-29            
1 07780U 75036A   26062.08377931  .00000181  00000+0 -82647-2 0  9996
2 07780  63.9584  73.2196 6883509 279.6059  14.6046  2.00602927372791
ANIK A3 (TELESAT 3)     
1 07790U 75038A   26063.63621382 -.00000057  00000+0  00000+0 0  9995
2 07790   7.9232 303.4971 0002648  19.0654 143.9925  1.00031278128916
SL-6 R/B(2)             
1 07800U 75036D   26062.70489859 -.00000106  00000+0  00000+0 0  9998
2 07800  63.7588 153.4007 6684769 283.8415  14.6815  1.96852615365115
ATLAS CENTAUR R/B       
1 07902U 75042B   26062.19313894 -.00000110  00000+0  10032-2 0  9990
2 07902  25.6890 289.3981 7207436 234.0170  36.2920  2.21154092278663
ATLAS AGENA R/B         
1 07964U 75055B   26062.33783159 -.00000154  00000+0  00000+0 0  9992
2 07964   9.8023 235.7257 1190090 139.0421 230.3419  1.02090543 25611
