[{"OBJECT_NAME":"WESTAR 1","OBJECT_ID":"1974-022A","EPOCH":"2026-03-03T23:14:28.896000","MEAN_MOTION":0.99902455,"ECCENTRICITY":0.0006701,"INCLINATION":7.3463,"RA_OF_ASC_NODE":298.7765,"ARG_OF_PERICENTER":32.1623,"MEAN_ANOMALY":307.2291,"EPHEMERIS_TYPE":0,"CLASSIFICATION_TYPE":"U","NORAD_CAT_ID":7250,"ELEMENT_SET_NO":999,"REV_AT_EPOCH":12127,"BSTAR":0,"MEAN_MOTION_DOT":-3.72e-6,"MEAN_MOTION_DDOT":0},{"OBJECT_NAME":"TITAN 3C TRANSTAGE R/B","OBJECT_ID":"1974-039C","EPOCH":"2026-03-04T01:49:12.631296","MEAN_MOTION":1.00718867,"ECCENTRICITY":0.00338211,"INCLINATION":3.013,"RA_OF_ASC_NODE":262.3524,"ARG_OF_PERICENTER":80.3973,"MEAN_ANOMALY":156.4868,"EPHEMERIS_TYPE":0,"CLASSIFICATION_TYPE":"U","NORAD_CAT_ID":7324,"ELEMENT_SET_NO":999,"REV_AT_EPOCH":11856,"BSTAR":0,"MEAN_MOTION_DOT":-2.69e-6,"MEAN_MOTION_DDOT":0},{"OBJECT_NAME":"SL-6 R/B(2)","OBJECT_ID":"1974-026E","EPOCH":"2026-03-01T23:16:53.139072","MEAN_MOTION":2.0657797,"ECCENTRICITY":0.71202631,"INCLINATION":64.1539,"RA_OF_ASC_NODE":308.5298,"ARG_OF_PERICENTER":269.4646,"MEAN_ANOMALY":16.2289,"EPHEMERIS_TYPE":0,"CLASSIFICATION_TYPE":"U","NORAD_CAT_ID":7373,"ELEMENT_SET_NO":999,"REV_AT_EPOCH":38472,"BSTAR":0,"MEAN_MOTION_DOT":8.43e-6,"MEAN_MOTION_DDOT":0},{"OBJECT_NAME":"MOLNIYA 2-10","OBJECT_ID":"1974-056A","EPOCH":"2026-02-26T19:36:44.079840","MEAN_MOTION":2.01178367,"ECCENTRICITY":0.67519957,"INCLINATION":65.3416,"RA_OF_ASC_NODE":311.4743,"ARG_OF_PERICENTER":270.7875,"MEAN_ANOMALY":18.7952,"EPHEMERIS_TYPE":0,"CLASSIFICATION_TYPE":"U","NORAD_CAT_ID":7376,"ELEMENT_SET_NO":999,"REV_AT_EPOCH":37751,"BSTAR":0,"MEAN_MOTION_DOT":8.82e-6,"MEAN_MOTION_DDOT":0},{"OBJECT_NAME":"MOLNIYA 1-S","OBJECT_ID":"1974-060A","EPOCH":"2026-03-04T19:15:24.759360","MEAN_MOTION":1.003325,"ECCENTRICITY":0.0007624,"INCLINATION":1.6398,"RA_OF_ASC_NODE":254.7491,"ARG_OF_PERICENTER":282.5638,"MEAN_ANOMALY":6.7175,"EPHEMERIS_TYPE":0,"CLASSIFICATION_TYPE":"U","NORAD_CAT_ID":7392,"ELEMENT_SET_NO":999,"REV_AT_EPOCH":13312,"BSTAR":0,"MEAN_MOTION_DOT":-2.73e-6,"MEAN_MOTION_DDOT":0},{"OBJECT_NAME":"WESTAR 2","OBJECT_ID":"1974-075A","EPOCH":"2026-03-03T22:35:55.091040","MEAN_MOTION":0.99861893,"ECCENTRICITY":0.0001697,"INCLINATION":7.4946,"RA_OF_ASC_NODE":300.4751,"ARG_OF_PERICENTER":252.0149,"MEAN_ANOMALY":300.8601,"EPHEMERIS_TYPE":0,"CLASSIFICATION_TYPE":"U","NORAD_CAT_ID":7466,"ELEMENT_SET_NO":999,"REV_AT_EPOCH":13660,"BSTAR":0,"MEAN_MOTION_DOT":-1.53e-6,"MEAN_MOTION_DDOT":0},{"OBJECT_NAME":"INTELSAT 4-F8","OBJECT_ID":"1974-093A","EPOCH":"2026-03-04T15:37:39.664128","MEAN_MOTION":0.99780128,"ECCENTRICITY":0.0001373,"INCLINATION":8.1905,"RA_OF_ASC_NODE":305.2669,"ARG_OF_PERICENTER":232.3698,"MEAN_ANOMALY":277.9698,"EPHEMERIS_TYPE":0,"CLASSIFICATION_TYPE":"U","NORAD_CAT_ID":7544,"ELEMENT_SET_NO":999,"REV_AT_EPOCH":12416,"BSTAR":0,"MEAN_MOTION_DOT":8.9e-7,"MEAN_MOTION_DDOT":0},{"OBJECT_NAME":"ATLAS CENTAUR R/B","OBJECT_ID":"1974-093B","EPOCH":"2026-03-03T02:10:43.685760","MEAN_MOTION":2.21273689,"ECCENTRICITY":0.71920098,"INCLINATION":25.9376,"RA_OF_ASC_NODE":88.9998,"ARG_OF_PERICENTER":260.6294,"MEAN_ANOMALY":18.9123,"EPHEMERIS_TYPE":0,"CLASSIFICATION_TYPE":"U","NORAD_CAT_ID":7545,"ELEMENT_SET_NO":999,"REV_AT_EPOCH":28455,"BSTAR":0.001791491,"MEAN_MOTION_DOT":-7.5e-7,"MEAN_MOTION_DDOT":0},{"OBJECT_NAME":"SKYNET 2B","OBJECT_ID":"1974-094A","EPOCH":"2026-03-04T04:34:38.601984","MEAN_MOTION":1.00383036,"ECCENTRICITY":2.617e-5,"INCLINATION":3.8362,"RA_OF_ASC_NODE":281.6244,"ARG_OF_PERICENTER":189.9377,"MEAN_ANOMALY":173.2953,"EPHEMERIS_TYPE":0,"CLASSIFICATION_TYPE":"U","NORAD_CAT_ID":7547,"ELEMENT_SET_NO":999,"REV_AT_EPOCH":12371,"BSTAR":0,"MEAN_MOTION_DOT":5.6e-7,"MEAN_MOTION_DDOT":0},{"OBJECT_NAME":"SYMPHONIE 1","OBJECT_ID":"1974-101A","EPOCH":"2026-03-04T03:58:07.771872","MEAN_MOTION":0.99947866,"ECCENTRICITY":0.00045469,"INCLINATION":4.8449,"RA_OF_ASC_NODE":278.3314,"ARG_OF_PERICENTER":27.2609,"MEAN_ANOMALY":318.1217,"EPHEMERIS_TYPE":0,"CLASSIFICATION_TYPE":"U","NORAD_CAT_ID":7578,"ELEMENT_SET_NO":999,"REV_AT_EPOCH":11614,"BSTAR":0,"MEAN_MOTION_DOT":1.3e-6,"MEAN_MOTION_DDOT":0},{"OBJECT_NAME":"COSMOS 706","OBJECT_ID":"1975-007A","EPOCH":"2026-02-09T05:19:40.230624","MEAN_MOTION":2.00695604,"ECCENTRICITY":0.6865829,"INCLINATION":63.9823,"RA_OF_ASC_NODE":167.2451,"ARG_OF_PERICENTER":3.1692,"MEAN_ANOMALY":359.4012,"EPHEMERIS_TYPE":0,"CLASSIFICATION_TYPE":"U","NORAD_CAT_ID":7625,"ELEMENT_SET_NO":999,"REV_AT_EPOCH":23387,"BSTAR":0,"MEAN_MOTION_DOT":-7.26e-6,"MEAN_MOTION_DDOT":0},{"OBJECT_NAME":"SMS 2","OBJECT_ID":"1975-011A","EPOCH":"2026-03-03T21:41:07.844928","MEAN_MOTION":0.99516308,"ECCENTRICITY":0.0012289,"INCLINATION":5.7359,"RA_OF_ASC_NODE":284.412,"ARG_OF_PERICENTER":284.433,"MEAN_ANOMALY":78.6338,"EPHEMERIS_TYPE":0,"CLASSIFICATION_TYPE":"U","NORAD_CAT_ID":7648,"ELEMENT_SET_NO":999,"REV_AT_EPOCH":13463,"BSTAR":0,"MEAN_MOTION_DOT":-2.57e-6,"MEAN_MOTION_DDOT":0},{"OBJECT_NAME":"MOLNIYA 1-29","OBJECT_ID":"1975-036A","EPOCH":"2026-03-03T02:00:38.532384","MEAN_MOTION":2.00602927,"ECCENTRICITY":0.68835098,"INCLINATION":63.9584,"RA_OF_ASC_NODE":73.2196,"ARG_OF_PERICENTER":279.6059,"MEAN_ANOMALY":14.6046,"EPHEMERIS_TYPE":0,"CLASSIFICATION_TYPE":"U","NORAD_CAT_ID":7780,"ELEMENT_SET_NO":999,"REV_AT_EPOCH":37279,"BSTAR":-0.0082647102,"MEAN_MOTION_DOT":1.81e-6,"MEAN_MOTION_DDOT":0},{"OBJECT_NAME":"ANIK A3 (TELESAT 3)","OBJECT_ID":"1975-038A","EPOCH":"2026-03-04T15:16:08.874048","MEAN_MOTION":1.00031278,"ECCENTRICITY":0.0002648,"INCLINATION":7.9232,"RA_OF_ASC_NODE":303.4971,"ARG_OF_PERICENTER":19.0654,"MEAN_ANOMALY":143.9925,"EPHEMERIS_TYPE":0,"CLASSIFICATION_TYPE":"U","NORAD_CAT_ID":7790,"ELEMENT_SET_NO":999,"REV_AT_EPOCH":12891,"BSTAR":0,"MEAN_MOTION_DOT":-5.7e-7,"MEAN_MOTION_DDOT":0},{"OBJECT_NAME":"SL-6 R/B(2)","OBJECT_ID":"1975-036D","EPOCH":"2026-03-03T16:55:03.238176","MEAN_MOTION":1.96852615,"ECCENTRICITY":0.6684769,"INCLINATION":63.7588,"RA_OF_ASC_NODE":153.4007,"ARG_OF_PERICENTER":283.8415,"MEAN_ANOMALY":14.6815,"EPHEMERIS_TYPE":0,"CLASSIFICATION_TYPE":"U","NORAD_CAT_ID":7800,"ELEMENT_SET_NO":999,"REV_AT_EPOCH":36511,"BSTAR":0,"MEAN_MOTION_DOT":-1.06e-6,"MEAN_MOTION_DDOT":0},{"OBJECT_NAME":"ATLAS CENTAUR R/B","OBJECT_ID":"1975-042B","EPOCH":"2026-03-03T04:38:07.204416","MEAN_MOTION":2.21154092,"ECCENTRICITY":0.7207436,"INCLINATION":25.689,"RA_OF_ASC_NODE":289.3981,"ARG_OF_PERICENTER":234.017,"MEAN_ANOMALY":36.292,"EPHEMERIS_TYPE":0,"CLASSIFICATION_TYPE":"U","NORAD_CAT_ID":7902,"ELEMENT_SET_NO":999,"REV_AT_EPOCH":27866,"BSTAR":0.0010032,"MEAN_MOTION_DOT":-1.1e-6,"MEAN_MOTION_DDOT":0},{"OBJECT_NAME":"ATLAS AGENA R/B","OBJECT_ID":"1975-055B","EPOCH":"2026-03-03T08:06:28.649376","MEAN_MOTION":1.02090543,"ECCENTRICITY":0.11900903,"INCLINATION":9.8023,"RA_OF_ASC_NODE":235.7257,"ARG_OF_PERICENTER":139.0421,"MEAN_ANOMALY":230.3419,"EPHEMERIS_TYPE":0,"CLASSIFICATION_TYPE":"U","NORAD_CAT_ID":7964,"ELEMENT_SET_NO":999,"REV_AT_EPOCH":2561,"BSTAR":0,"MEAN_MOTION_DOT":-1.54e-6,"MEAN_MOTION_DDOT":0}]
